IRIS                    
1 39197U 13033A   23116.76652414  .00001572  00000+0  21237-3 0  9999
2 39197  97.9714 305.0367 0028446  95.0848 265.3612 14.80213090530304
HISAKI (SPRINT-A)       
1 39253U 13049A   23116.81254765  .00000127  00000+0  87746-4 0  9995
2 39253  29.7195 292.2856 0136693  76.4205 285.1553 13.55320391475640
CASSIOPE                
1 39265U 13055A   23117.58522428  .00024015  00000+0  58472-3 0  9999
2 39265  80.9581 291.8665 0577853 100.7034 265.9737 14.50065694497622
STSAT-3                 
1 39422U 13066G   23117.55779406  .00003629  00000+0  36170-3 0  9992
2 39422  97.4849 111.2397 0020921 317.4686  42.4899 14.92009728512642
SWARM B                 
1 39451U 13067A   23117.56924628  .00003528  00000+0  15033-3 0  9997
2 39451  87.7482 327.2912 0002647  96.6819 263.4728 15.22637083523306
SWARM A                 
1 39452U 13067B   23117.57465962  .00007237  00000+0  21331-3 0  9999
2 39452  87.3523 112.0832 0002842  95.1304 265.0272 15.34836637530130
SWARM C                 
1 39453U 13067C   23116.85665069  .00007668  00000+0  21467-3 0  9998
2 39453  87.3373 111.1723 0002828  94.3371 265.8206 15.36458600529935
BRITE-CA1 (TORONTO)     
1 40020U 14033L   23117.10133266  .00001176  00000+0  20335-3 0  9993
2 40020  97.8188 265.9763 0085047 344.0906  15.7630 14.67862136473760
OCO 2                   
1 40059U 14035A   23116.89313757  .00000897  00000+0  20887-3 0  9998
2 40059  98.1975  58.7257 0000815 103.3956 256.7334 14.57158797468972
BRITE-PL2 (HEWELIUSZ)   
1 40119U 14049B   23116.34395269  .00002714  00000+0  31342-3 0  9996
2 40119  97.8773 213.9092 0015439 299.6429  60.3249 14.86366596470466
RESURS P2               
1 40360U 14087A   23117.50932198  .00016359  00000+0  37764-3 0  9997
2 40360  97.1804 201.7107 0009023  43.3000  85.1533 15.42572433466553
MMS 1                   
1 40482U 15011A   23115.99992176 -.00001054  00000+0  00000+0 0  9999
2 40482  28.9525  71.2753 9075876  89.0401 109.7676  0.28571413 14192
MMS 2                   
1 40483U 15011B   23115.66658843 -.00001085  00000+0  00000+0 0  9998
2 40483  28.9584  71.3230 9076022  88.9828  75.5223  0.28573184 14256
MMS 3                   
1 40484U 15011C   23114.65339745 -.00001147  00000+0  00000+0 0  9993
2 40484  28.9473  71.4789 9075421  88.8270 331.3483  0.28577495 14166
MMS 4                   
1 40485U 15011D   23114.66034190 -.00001148  00000+0  00000+0 0  9992
2 40485  28.9513  71.4701 9076133  88.8378 332.0500  0.28575827 14161
ASTROSAT                
1 40930U 15052A   23117.14059272  .00002086  00000+0  19779-3 0  9994
2 40930   5.9965 100.1796 0009363 276.4994  83.4067 14.77448410409650
DAMPE                   
1 41173U 15078A   23117.21758395  .00001331  00000+0  55491-4 0  9996
2 41173  97.4036 108.8518 0013809 166.9436 248.2357 15.25391087409391
