[{"OBJECT_NAME":"IRIS","OBJECT_ID":"2013-033A","EPOCH":"2023-04-26T18:23:47.685696","MEAN_MOTION":14.8021309,"ECCENTRICITY":0.0028446,"INCLINATION":97.9714,"RA_OF_ASC_NODE":305.0367,"ARG_OF_PERICENTER":95.0848,"MEAN_ANOMALY":265.3612,"EPHEMERIS_TYPE":0,"CLASSIFICATION_TYPE":"U","NORAD_CAT_ID":39197,"ELEMENT_SET_NO":999,"REV_AT_EPOCH":53030,"BSTAR":0.00021237,"MEAN_MOTION_DOT":1.572e-5,"MEAN_MOTION_DDOT":0},{"OBJECT_NAME":"HISAKI (SPRINT-A)","OBJECT_ID":"2013-049A","EPOCH":"2023-04-26T19:30:04.116960","MEAN_MOTION":13.55320391,"ECCENTRICITY":0.0136693,"INCLINATION":29.7195,"RA_OF_ASC_NODE":292.2856,"ARG_OF_PERICENTER":76.4205,"MEAN_ANOMALY":285.1553,"EPHEMERIS_TYPE":0,"CLASSIFICATION_TYPE":"U","NORAD_CAT_ID":39253,"ELEMENT_SET_NO":999,"REV_AT_EPOCH":47564,"BSTAR":8.7746e-5,"MEAN_MOTION_DOT":1.27e-6,"MEAN_MOTION_DDOT":0},{"OBJECT_NAME":"CASSIOPE","OBJECT_ID":"2013-055A","EPOCH":"2023-04-27T14:02:43.377792","MEAN_MOTION":14.50065694,"ECCENTRICITY":0.0577853,"INCLINATION":80.9581,"RA_OF_ASC_NODE":291.8665,"ARG_OF_PERICENTER":100.7034,"MEAN_ANOMALY":265.9737,"EPHEMERIS_TYPE":0,"CLASSIFICATION_TYPE":"U","NORAD_CAT_ID":39265,"ELEMENT_SET_NO":999,"REV_AT_EPOCH":49762,"BSTAR":0.00058472,"MEAN_MOTION_DOT":0.00024015,"MEAN_MOTION_DDOT":0},{"OBJECT_NAME":"STSAT-3","OBJECT_ID":"2013-066G","EPOCH":"2023-04-27T13:23:13.406784","MEAN_MOTION":14.92009728,"ECCENTRICITY":0.0020921,"INCLINATION":97.4849,"RA_OF_ASC_NODE":111.2397,"ARG_OF_PERICENTER":317.4686,"MEAN_ANOMALY":42.4899,"EPHEMERIS_TYPE":0,"CLASSIFICATION_TYPE":"U","NORAD_CAT_ID":39422,"ELEMENT_SET_NO":999,"REV_AT_EPOCH":51264,"BSTAR":0.0003617,"MEAN_MOTION_DOT":3.629e-5,"MEAN_MOTION_DDOT":0},{"OBJECT_NAME":"SWARM B","OBJECT_ID":"2013-067A","EPOCH":"2023-04-27T13:39:42.878592","MEAN_MOTION":15.22637083,"ECCENTRICITY":0.0002647,"INCLINATION":87.7482,"RA_OF_ASC_NODE":327.2912,"ARG_OF_PERICENTER":96.6819,"MEAN_ANOMALY":263.4728,"EPHEMERIS_TYPE":0,"CLASSIFICATION_TYPE":"U","NORAD_CAT_ID":39451,"ELEMENT_SET_NO":999,"REV_AT_EPOCH":52330,"BSTAR":0.00015033,"MEAN_MOTION_DOT":3.528e-5,"MEAN_MOTION_DDOT":0},{"OBJECT_NAME":"SWARM A","OBJECT_ID":"2013-067B","EPOCH":"2023-04-27T13:47:30.591168","MEAN_MOTION":15.34836637,"ECCENTRICITY":0.0002842,"INCLINATION":87.3523,"RA_OF_ASC_NODE":112.0832,"ARG_OF_PERICENTER":95.1304,"MEAN_ANOMALY":265.0272,"EPHEMERIS_TYPE":0,"CLASSIFICATION_TYPE":"U","NORAD_CAT_ID":39452,"ELEMENT_SET_NO":999,"REV_AT_EPOCH":53013,"BSTAR":0.00021331,"MEAN_MOTION_DOT":7.237e-5,"MEAN_MOTION_DDOT":0},{"OBJECT_NAME":"SWARM C","OBJECT_ID":"2013-067C","EPOCH":"2023-04-26T20:33:34.619616","MEAN_MOTION":15.364586,"ECCENTRICITY":0.0002828,"INCLINATION":87.3373,"RA_OF_ASC_NODE":111.1723,"ARG_OF_PERICENTER":94.3371,"MEAN_ANOMALY":265.8206,"EPHEMERIS_TYPE":0,"CLASSIFICATION_TYPE":"U","NORAD_CAT_ID":39453,"ELEMENT_SET_NO":999,"REV_AT_EPOCH":52993,"BSTAR":0.00021467,"MEAN_MOTION_DOT":7.668e-5,"MEAN_MOTION_DDOT":0},{"OBJECT_NAME":"BRITE-CA1 (TORONTO)","OBJECT_ID":"2014-033L","EPOCH":"2023-04-27T02:25:55.141824","MEAN_MOTION":14.67862136,"ECCENTRICITY":0.0085047,"INCLINATION":97.8188,"RA_OF_ASC_NODE":265.9763,"ARG_OF_PERICENTER":344.0906,"MEAN_ANOMALY":15.763,"EPHEMERIS_TYPE":0,"CLASSIFICATION_TYPE":"U","NORAD_CAT_ID":40020,"ELEMENT_SET_NO":999,"REV_AT_EPOCH":47376,"BSTAR":0.00020335,"MEAN_MOTION_DOT":1.176e-5,"MEAN_MOTION_DDOT":0},{"OBJECT_NAME":"OCO 2","OBJECT_ID":"2014-035A","EPOCH":"2023-04-26T21:26:07.086048","MEAN_MOTION":14.57158797,"ECCENTRICITY":8.15e-5,"INCLINATION":98.1975,"RA_OF_ASC_NODE":58.7257,"ARG_OF_PERICENTER":103.3956,"MEAN_ANOMALY":256.7334,"EPHEMERIS_TYPE":0,"CLASSIFICATION_TYPE":"U","NORAD_CAT_ID":40059,"ELEMENT_SET_NO":999,"REV_AT_EPOCH":46897,"BSTAR":0.00020887,"MEAN_MOTION_DOT":8.97e-6,"MEAN_MOTION_DDOT":0},{"OBJECT_NAME":"BRITE-PL2 (HEWELIUSZ)","OBJECT_ID":"2014-049B","EPOCH":"2023-04-26T08:15:17.512416","MEAN_MOTION":14.86366596,"ECCENTRICITY":0.0015439,"INCLINATION":97.8773,"RA_OF_ASC_NODE":213.9092,"ARG_OF_PERICENTER":299.6429,"MEAN_ANOMALY":60.3249,"EPHEMERIS_TYPE":0,"CLASSIFICATION_TYPE":"U","NORAD_CAT_ID":40119,"ELEMENT_SET_NO":999,"REV_AT_EPOCH":47046,"BSTAR":0.00031342,"MEAN_MOTION_DOT":2.714e-5,"MEAN_MOTION_DDOT":0},{"OBJECT_NAME":"RESURS P2","OBJECT_ID":"2014-087A","EPOCH":"2023-04-27T12:13:25.419072","MEAN_MOTION":15.42572433,"ECCENTRICITY":0.0009023,"INCLINATION":97.1804,"RA_OF_ASC_NODE":201.7107,"ARG_OF_PERICENTER":43.3,"MEAN_ANOMALY":85.1533,"EPHEMERIS_TYPE":0,"CLASSIFICATION_TYPE":"U","NORAD_CAT_ID":40360,"ELEMENT_SET_NO":999,"REV_AT_EPOCH":46655,"BSTAR":0.00037764,"MEAN_MOTION_DOT":0.00016359,"MEAN_MOTION_DDOT":0},{"OBJECT_NAME":"MMS 1","OBJECT_ID":"2015-011A","EPOCH":"2023-04-25T23:59:53.240064","MEAN_MOTION":0.28571413,"ECCENTRICITY":0.9075876,"INCLINATION":28.9525,"RA_OF_ASC_NODE":71.2753,"ARG_OF_PERICENTER":89.0401,"MEAN_ANOMALY":109.7676,"EPHEMERIS_TYPE":0,"CLASSIFICATION_TYPE":"U","NORAD_CAT_ID":40482,"ELEMENT_SET_NO":999,"REV_AT_EPOCH":1419,"BSTAR":0,"MEAN_MOTION_DOT":-1.054e-5,"MEAN_MOTION_DDOT":0},{"OBJECT_NAME":"MMS 2","OBJECT_ID":"2015-011B","EPOCH":"2023-04-25T15:59:53.240352","MEAN_MOTION":0.28573184,"ECCENTRICITY":0.9076022,"INCLINATION":28.9584,"RA_OF_ASC_NODE":71.323,"ARG_OF_PERICENTER":88.9828,"MEAN_ANOMALY":75.5223,"EPHEMERIS_TYPE":0,"CLASSIFICATION_TYPE":"U","NORAD_CAT_ID":40483,"ELEMENT_SET_NO":999,"REV_AT_EPOCH":1425,"BSTAR":0,"MEAN_MOTION_DOT":-1.085e-5,"MEAN_MOTION_DDOT":0},{"OBJECT_NAME":"MMS 3","OBJECT_ID":"2015-011C","EPOCH":"2023-04-24T15:40:53.539680","MEAN_MOTION":0.28577495,"ECCENTRICITY":0.9075421,"INCLINATION":28.9473,"RA_OF_ASC_NODE":71.4789,"ARG_OF_PERICENTER":88.827,"MEAN_ANOMALY":331.3483,"EPHEMERIS_TYPE":0,"CLASSIFICATION_TYPE":"U","NORAD_CAT_ID":40484,"ELEMENT_SET_NO":999,"REV_AT_EPOCH":1416,"BSTAR":0,"MEAN_MOTION_DOT":-1.147e-5,"MEAN_MOTION_DDOT":0},{"OBJECT_NAME":"MMS 4","OBJECT_ID":"2015-011D","EPOCH":"2023-04-24T15:50:53.540160","MEAN_MOTION":0.28575827,"ECCENTRICITY":0.9076133,"INCLINATION":28.9513,"RA_OF_ASC_NODE":71.4701,"ARG_OF_PERICENTER":88.8378,"MEAN_ANOMALY":332.05,"EPHEMERIS_TYPE":0,"CLASSIFICATION_TYPE":"U","NORAD_CAT_ID":40485,"ELEMENT_SET_NO":999,"REV_AT_EPOCH":1416,"BSTAR":0,"MEAN_MOTION_DOT":-1.148e-5,"MEAN_MOTION_DDOT":0},{"OBJECT_NAME":"ASTROSAT","OBJECT_ID":"2015-052A","EPOCH":"2023-04-27T03:22:27.211008","MEAN_MOTION":14.7744841,"ECCENTRICITY":0.0009363,"INCLINATION":5.9965,"RA_OF_ASC_NODE":100.1796,"ARG_OF_PERICENTER":276.4994,"MEAN_ANOMALY":83.4067,"EPHEMERIS_TYPE":0,"CLASSIFICATION_TYPE":"U","NORAD_CAT_ID":40930,"ELEMENT_SET_NO":999,"REV_AT_EPOCH":40965,"BSTAR":0.00019779,"MEAN_MOTION_DOT":2.086e-5,"MEAN_MOTION_DDOT":0},{"OBJECT_NAME":"DAMPE","OBJECT_ID":"2015-078A","EPOCH":"2023-04-27T05:13:19.253280","MEAN_MOTION":15.25391087,"ECCENTRICITY":0.0013809,"INCLINATION":97.4036,"RA_OF_ASC_NODE":108.8518,"ARG_OF_PERICENTER":166.9436,"MEAN_ANOMALY":248.2357,"EPHEMERIS_TYPE":0,"CLASSIFICATION_TYPE":"U","NORAD_CAT_ID":41173,"ELEMENT_SET_NO":999,"REV_AT_EPOCH":40939,"BSTAR":5.5491e-5,"MEAN_MOTION_DOT":1.331e-5,"MEAN_MOTION_DDOT":0}]
